NORAD_CAT_ID,OBJECT_NAME,OBJECT_TYPE,EPOCH,MEAN_MOTION,ECCENTRICITY,INCLINATION,RA_OF_ASC_NODE,ARG_OF_PERICENTER,MEAN_ANOMALY,BSTAR,MEAN_MOTION_DOT,MEAN_MOTION_DDOT,TLE_LINE0,TLE_LINE1,TLE_LINE2,SEMIMAJOR_AXIS,PERIOD,APOGEE,PERIGEE,DECAYED
54060.0,STARLINK-5169,PAYLOAD,2024-06-05 17:14:10,15.08836704,0.0002221,53.2139,315.6969,97.8542,262.2702,-2.0905e-05,-6.21e-06,0.0,0 STARLINK-5169,1 54060U 22136K   24157.71817448 -.00000621  00000-0 -20905-4 0  9999,2 54060  53.2139 315.6969 0002221  97.8542 262.2702 15.08836704 90351,6917.89,95.438,541.292,538.219,0.0
54060.0,STARLINK-5169,PAYLOAD,2024-06-07 08:58:48,15.08838593,0.0002145,53.2184,308.2643,100.851,259.2723,1.2133e-05,-9.5e-07,0.0,0 STARLINK-5169,1 54060U 22136K   24159.37417486 -.00000095  00000-0  12133-4 0  9999,2 54060  53.2184 308.2643 0002145 100.8510 259.2723 15.08838593 91081,6917.885,95.438,541.234,538.266,0.0
54060.0,STARLINK-5169,PAYLOAD,2024-06-07 16:55:45,15.08828596,0.0001202,53.2158,306.7784,68.6776,291.4344,2.2117e-05,6.4e-07,0.0,0 STARLINK-5169,1 54060U 22136K   24159.70538261  .00000064  00000-0  22117-4 0  9999,2 54060  53.2158 306.7784 0001202  68.6776 291.4344 15.08828596 91134,6917.915,95.438,540.612,538.949,0.0
54060.0,STARLINK-5169,PAYLOAD,2024-06-08 16:46:31,15.08840488,0.0001256,53.2133,302.3145,46.611,313.4986,3.5685e-05,2.8e-06,0.0,0 STARLINK-5169,1 54060U 22136K   24160.69897649  .00000280  00000-0  35685-4 0  9991,2 54060  53.2133 302.3145 0001256  46.6110 313.4986 15.08840488 91284,6917.879,95.438,540.613,538.875,0.0
54060.0,STARLINK-5169,PAYLOAD,2024-06-09 10:15:46,15.08837097,0.0002925,53.2185,299.0474,318.6586,41.4184,-3.9218e-05,-9.13e-06,0.0,0 STARLINK-5169,1 54060U 22136K   24161.42762709 -.00000913  00000-0 -39218-4 0  9992,2 54060  53.2185 299.0474 0002925 318.6586  41.4184 15.08837097 91393,6917.889,95.438,541.778,537.731,0.0
54060.0,STARLINK-5169,PAYLOAD,2024-06-10 02:09:40,15.08814987,0.0001842,53.219,296.0733,89.9774,270.1429,-0.00014082,-2.527e-05,0.0,0 STARLINK-5169,1 54060U 22136K   24162.09005032 -.00002527  00000-0 -14082-3 0  9999,2 54060  53.2190 296.0733 0001842  89.9774 270.1429 15.08814987 91495,6917.957,95.439,541.096,538.548,0.0
54060.0,STARLINK-5169,PAYLOAD,2024-06-10 13:17:20,15.08844116,8.69e-05,53.2194,293.9919,354.0482,6.05,0.00015108,2.118e-05,0.0,0 STARLINK-5169,1 54060U 22136K   24162.55370516  .00002118  00000-0  15108-3 0  9996,2 54060  53.2194 293.9919 0000869 354.0482   6.0500 15.08844116 91562,6917.868,95.437,540.334,539.132,0.0
54060.0,STARLINK-5169,PAYLOAD,2024-06-10 16:28:05,15.08855687,9.66e-05,53.2182,293.3964,349.082,11.0151,0.00024055,3.544e-05,0.0,0 STARLINK-5169,1 54060U 22136K   24162.68617341  .00003544  00000-0  24055-3 0  9995,2 54060  53.2182 293.3964 0000966 349.0820  11.0151 15.08855687 91586,6917.832,95.437,540.366,539.029,0.0
54060.0,STARLINK-5169,PAYLOAD,2024-06-11 02:00:23,15.08866567,0.0001094,53.2187,291.6113,12.183,347.9189,0.0002545,3.768e-05,0.0,0 STARLINK-5169,1 54060U 22136K   24163.08360211  .00003768  00000-0  25450-3 0  9999,2 54060  53.2187 291.6113 0001094  12.1830 347.9189 15.08866567 91648,6917.799,95.436,540.421,538.907,0.0
54060.0,STARLINK-5169,PAYLOAD,2024-06-11 13:08:07,15.08830715,0.0001218,53.2188,289.5326,83.8603,276.2528,0.00020537,2.981e-05,0.0,0 STARLINK-5169,1 54060U 22136K   24163.54730532  .00002981  00000-0  20537-3 0  9994,2 54060  53.2188 289.5326 0001218  83.8603 276.2528 15.08830715 91234,6917.909,95.438,540.616,538.931,0.0
54060.0,STARLINK-5169,PAYLOAD,2024-06-11 14:43:30,15.08831104,0.0001196,53.2189,289.2354,82.8822,277.2307,0.00020338,2.95e-05,0.0,0 STARLINK-5169,1 54060U 22136K   24163.61354540  .00002950  00000-0  20338-3 0  9998,2 54060  53.2189 289.2354 0001196  82.8822 277.2307 15.08831104 91723,6917.908,95.438,540.6,538.945,0.0
54060.0,STARLINK-5169,PAYLOAD,2024-06-12 14:34:17,15.0884928,8.89e-05,53.2164,284.7744,118.8538,241.2543,-0.00017768,-3.115e-05,0.0,0 STARLINK-5169,1 54060U 22136K   24164.60714515 -.00003115  00000-0 -17768-3 0  9999,2 54060  53.2164 284.7744 0000889 118.8538 241.2543 15.08849280 91391,6917.852,95.437,540.332,539.102,0.0
54060.0,STARLINK-5169,PAYLOAD,2024-06-13 12:49:41,15.08819837,8.86e-05,53.2167,280.6117,86.4515,273.6579,0.00021376,3.114e-05,0.0,0 STARLINK-5169,1 54060U 22136K   24165.53450919  .00003114  00000-0  21376-3 0  9994,2 54060  53.2167 280.6117 0000886  86.4515 273.6579 15.08819837 92018,6917.942,95.439,540.42,539.194,0.0
54060.0,STARLINK-5169,PAYLOAD,2024-06-13 14:25:04,15.08837869,9.21e-05,53.2164,280.3139,80.1059,280.0037,-9.5601e-06,-4.4e-06,0.0,0 STARLINK-5169,1 54060U 22136K   24165.60074438 -.00000440  00000-0 -95601-5 0  9995,2 54060  53.2164 280.3139 0000921  80.1059 280.0037 15.08837869 91543,6917.887,95.438,540.389,539.115,0.0
54060.0,STARLINK-5169,PAYLOAD,2024-06-13 17:35:50,15.08839235,9.29e-05,53.2165,279.7186,79.5476,280.5621,-3.0937e-06,-3.37e-06,0.0,0 STARLINK-5169,1 54060U 22136K   24165.73322336 -.00000337  00000-0 -30937-5 0  9998,2 54060  53.2165 279.7186 0000929  79.5476 280.5621 15.08839235 91566,6917.883,95.438,540.39,539.105,0.0
54060.0,STARLINK-5169,PAYLOAD,2024-06-14 14:15:51,15.08834757,9.3e-05,53.2175,275.8521,77.7675,282.3421,8.2507e-05,1.025e-05,0.0,0 STARLINK-5169,1 54060U 22136K   24166.59434433  .00001025  00000-0  82507-4 0  9997,2 54060  53.2175 275.8521 0000930  77.7675 282.3421 15.08834757 91696,6917.896,95.438,540.405,539.118,0.0
54060.0,STARLINK-5169,PAYLOAD,2024-06-14 17:26:38,15.08830498,8.27e-05,53.2186,275.26,76.3483,283.7602,2.6983e-05,1.42e-06,0.0,0 STARLINK-5169,1 54060U 22136K   24166.72682960  .00000142  00000-0  26983-4 0  9997,2 54060  53.2186 275.2600 0000827  76.3483 283.7602 15.08830498 91714,6917.909,95.438,540.347,539.202,0.0
54060.0,STARLINK-5169,PAYLOAD,2024-06-15 14:06:38,15.08836047,8.63e-05,53.2179,271.3957,89.6444,270.4647,4.3662e-05,4.07e-06,0.0,0 STARLINK-5169,1 54060U 22136K   24167.58794958  .00000407  00000-0  43662-4 0  9990,2 54060  53.2179 271.3957 0000863  89.6444 270.4647 15.08836047 91844,6917.892,95.438,540.354,539.16,0.0
54060.0,STARLINK-5169,PAYLOAD,2024-06-16 13:57:26,15.08833119,0.000105,53.2182,266.935,83.062,277.0492,1.2217e-05,-9.3e-07,0.0,0 STARLINK-5169,1 54060U 22136K   24168.58155296 -.00000093  00000-0  12217-4 0  9991,2 54060  53.2182 266.9350 0001050  83.0620 277.0492 15.08833119 91992,6917.901,95.438,540.493,539.04,0.0
54060.0,STARLINK-5169,PAYLOAD,2024-06-17 15:23:36,15.08836257,0.000114,53.2186,262.1742,75.3711,284.7408,-6.5963e-05,-1.337e-05,0.0,0 STARLINK-5169,1 54060U 22136K   24169.64139732 -.00001337  00000-0 -65963-4 0  9995,2 54060  53.2186 262.1742 0001140  75.3711 284.7408 15.08836257 92151,6917.892,95.438,540.545,538.968,0.0
54060.0,STARLINK-5169,PAYLOAD,2024-06-18 13:38:59,15.08846244,9.53e-05,53.2172,258.0114,82.9217,277.1883,8.09e-05,1e-05,0.0,0 STARLINK-5169,1 54060U 22136K   24170.56874334  .00001000  00000-0  80900-4 0  9995,2 54060  53.2172 258.0114 0000953  82.9217 277.1883 15.08846244 92777,6917.861,95.437,540.386,539.067,0.0
54060.0,STARLINK-5169,PAYLOAD,2024-06-19 05:32:51,15.08834869,9.89e-05,53.2168,255.04,85.768,274.3425,5.9672e-05,6.62e-06,0.0,0 STARLINK-5169,1 54060U 22136K   24171.23115041  .00000662  00000-0  59672-4 0  9998,2 54060  53.2168 255.0400 0000989  85.7680 274.3425 15.08834869 92873,6917.896,95.438,540.445,539.077,0.0
54060.0,STARLINK-5169,PAYLOAD,2024-06-19 11:54:24,15.08835359,0.0001015,53.2176,253.8481,86.4147,273.6962,-2.3312e-05,-6.59e-06,0.0,0 STARLINK-5169,1 54060U 22136K   24171.49611471 -.00000659  00000-0 -23312-4 0  9994,2 54060  53.2176 253.8481 0001015  86.4147 273.6962 15.08835359 92439,6917.895,95.438,540.462,539.057,0.0
54060.0,STARLINK-5169,PAYLOAD,2024-06-20 11:45:10,15.08847931,0.0001082,53.2178,249.3873,88.2302,271.8814,-2.7468e-05,-7.25e-06,0.0,0 STARLINK-5169,1 54060U 22136K   24172.48970734 -.00000725  00000-0 -27468-4 0  9994,2 54060  53.2178 249.3873 0001082  88.2302 271.8814 15.08847931 92584,6917.856,95.437,540.47,538.973,0.0
54060.0,STARLINK-5169,PAYLOAD,2024-06-21 11:35:58,15.08834473,0.0001112,53.2171,244.9263,88.5329,271.5791,3.0801e-05,2.02e-06,0.0,0 STARLINK-5169,1 54060U 22136K   24173.48331279  .00000202  00000-0  30801-4 0  9993,2 54060  53.2171 244.9263 0001112  88.5329 271.5791 15.08834473 93216,6917.897,95.438,540.532,538.993,0.0
54060.0,STARLINK-5169,PAYLOAD,2024-06-22 11:26:45,15.08837581,0.0001103,53.2167,240.4649,88.0336,272.0783,-3.1175e-05,-7.84e-06,0.0,0 STARLINK-5169,1 54060U 22136K   24174.47691494 -.00000784  00000-0 -31175-4 0  9993,2 54060  53.2167 240.4649 0001103  88.0336 272.0783 15.08837581 92885,6917.888,95.438,540.516,538.99,0.0
54060.0,STARLINK-5169,PAYLOAD,2024-06-22 14:37:31,15.08836835,0.0001116,53.2168,239.8713,86.3624,273.7496,-3.7392e-05,-8.83e-06,0.0,0 STARLINK-5169,1 54060U 22136K   24174.60939597 -.00000883  00000-0 -37392-4 0  9994,2 54060  53.2168 239.8713 0001116  86.3624 273.7496 15.08836835 93381,6917.89,95.438,540.527,538.983,0.0
54060.0,STARLINK-5169,PAYLOAD,2024-06-23 12:52:55,15.08836669,0.000113,53.2166,235.7092,93.0222,267.0899,4.1548e-05,3.73e-06,0.0,0 STARLINK-5169,1 54060U 22136K   24175.53675432  .00000373  00000-0  41548-4 0  9992,2 54060  53.2166 235.7092 0001130  93.0222 267.0899 15.08836669 93040,6917.891,95.438,540.537,538.974,0.0
54060.0,STARLINK-5169,PAYLOAD,2024-06-24 11:08:19,15.08840705,0.000116,53.2166,231.5461,86.5191,273.5934,7.7862e-05,9.52e-06,0.0,0 STARLINK-5169,1 54060U 22136K   24176.46411112  .00000952  00000-0  77862-4 0  9999,2 54060  53.2166 231.5461 0001160  86.5191 273.5934 15.08840705 93665,6917.878,95.438,540.546,538.941,0.0
54060.0,STARLINK-5169,PAYLOAD,2024-06-25 10:59:06,15.08836985,0.0001198,53.2166,227.0853,85.319,274.7939,-9.1182e-06,-4.33e-06,0.0,0 STARLINK-5169,1 54060U 22136K   24177.45771699 -.00000433  00000-0 -91182-5 0  9996,2 54060  53.2166 227.0853 0001198  85.3190 274.7939 15.08836985 93817,6917.89,95.438,540.583,538.926,0.0
